H1 CPF  1  HTS 2022  9 23 12  7661 larets           NONE
H2  0304206 5557    27944 2022 09 23  0  0  0 2022 09 28  0  0  0   180 1 1  0 0 0
H5  0.0560 
H9 
10 0 59849  69480.00000  0   -1834945.470    6534153.390   -1936742.912
10 0 59849  69660.00000  0   -1617600.360    6841174.340    -621850.504
10 0 59849  69840.00000  0   -1336513.040    6891902.150     715907.395
10 0 59849  70020.00000  0   -1008706.833    6682981.027    2027332.371
10 0 59849  70200.00000  0    -652887.529    6221124.416    3264213.085
10 0 59849  70380.00000  0    -288480.360    5522865.668    4381153.629
10 0 59849  70560.00000  0      65343.643    4613905.952    5337274.356
10 0 59849  70740.00000  0     390606.590    3528082.135    6097712.314
10 0 59849  70920.00000  0     671377.756    2306032.128    6634858.729
10 0 59849  71100.00000  0     894503.229     993617.511    6929313.014
10 0 59849  71280.00000  0    1050185.040    -359827.553    6970528.666
10 0 59849  71460.00000  0    1132389.961   -1703352.236    6757149.549
10 0 59849  71640.00000  0    1139075.292   -2986297.164    6297039.032
10 0 59849  71820.00000  0    1072225.077   -4160196.478    5606997.054
10 0 59849  72000.00000  0     937696.940   -5180606.473    4712168.844
10 0 59849  72180.00000  0     744890.533   -6008801.205    3645168.356
10 0 59849  72360.00000  0     506246.677   -6613283.305    2444925.635
10 0 59849  72540.00000  0     236595.077   -6971032.506    1155282.789
10 0 59849  72720.00000  0     -47619.515   -7068432.910    -176609.855
10 0 59849  72900.00000  0    -329195.870   -6901828.139   -1502047.087
10 0 59849  73080.00000  0    -591072.182   -6477658.632   -2772589.200
10 0 59849  73260.00000  0    -817211.579   -5812187.001   -3941861.106
10 0 59849  73440.00000  0    -993434.774   -4930828.262   -4967260.795
10 0 59849  73620.00000  0   -1108156.789   -3867119.773   -5811501.296
10 0 59849  73800.00000  0   -1152992.947   -2661394.506   -6443931.852
10 0 59849  73980.00000  0   -1123208.340   -1359219.506   -6841603.573
10 0 59849  74160.00000  0   -1017995.246      -9666.185   -6990053.281
10 0 59849  74340.00000  0    -840568.917    1336523.007   -6883796.127
10 0 59849  74520.00000  0    -598076.671    2628813.015   -6526522.526
10 0 59849  74700.00000  0    -301324.501    3818748.781   -5930999.670
10 0 59849  74880.00000  0      35675.298    4861773.024   -5118671.580
10 0 59849  75060.00000  0     396322.052    5718925.382   -4118952.156
10 0 59849  75240.00000  0     762187.908    6358360.799   -2968217.986
10 0 59849  75420.00000  0    1113893.870    6756614.826   -1708518.054
10 0 59849  75600.00000  0    1432061.466    6899550.990    -386037.172
10 0 59849  75780.00000  0    1698292.809    6782929.650     950634.125
10 0 59849  75960.00000  0    1896123.685    6412556.277    2252344.397
10 0 59849  76140.00000  0    2011897.188    5804004.077    3471251.574
10 0 59849  76320.00000  0    2035513.301    4981927.332    4562636.399
10 0 59849  76500.00000  0    1961012.598    3978998.102    5486578.646
10 0 59849  76680.00000  0    1786964.297    2834525.849    6209413.813
10 0 59849  76860.00000  0    1516647.281    1592853.648    6704921.453
10 0 59849  77040.00000  0    1158019.672     301597.564    6955226.450
10 0 59849  77220.00000  0     723480.062    -990194.802    6951388.122
10 0 59849  77400.00000  0     229431.309   -2233900.374    6693685.036
10 0 59849  77580.00000  0    -304341.736   -3383140.962    6191587.106
10 0 59849  77760.00000  0    -855456.707   -4395503.859    5463411.825
10 0 59849  77940.00000  0   -1399850.130   -5234103.708    4535685.521
10 0 59849  78120.00000  0   -1912804.243   -5868953.032    3442224.885
10 0 59849  78300.00000  0   -2370044.014   -6278080.876    2222934.367
10 0 59849  78480.00000  0   -2748852.626   -6448336.358     922360.588
10 0 59849  78660.00000  0   -3029149.858   -6375841.885    -411945.113
10 0 59849  78840.00000  0   -3194478.268   -6066069.679   -1731193.060
10 0 59849  79020.00000  0   -3232847.625   -5533532.912   -2987175.427
10 0 59849  79200.00000  0   -3137393.250   -4801105.228   -4134059.562
10 0 59849  79380.00000  0   -2906812.125   -3899006.471   -5130072.094
10 0 59849  79560.00000  0   -2545560.442   -2863517.590   -5939004.036
10 0 59849  79740.00000  0   -2063810.169   -1735491.277   -6531490.514
10 0 59849  79920.00000  0   -1477165.737    -558724.664   -6886029.484
10 0 59849  80100.00000  0    -806156.346     621737.565   -6989712.507
10 0 59849  80280.00000  0     -75525.572    1761304.720   -6838664.007
10 0 59849  80460.00000  0     686662.986    2817498.316   -6438188.817
10 0 59849  80640.00000  0    1450082.326    3751524.376   -5802623.983
10 0 59849  80820.00000  0    2183332.864    4529710.671   -4954881.501
10 0 59849  81000.00000  0    2855225.064    5124757.363   -3925687.688
10 0 59849  81180.00000  0    3436107.729    5516754.612   -2752523.514
10 0 59849  81360.00000  0    3899185.433    5693914.596   -1478287.988
10 0 59849  81540.00000  0    4221760.311    5652974.667    -149722.212
10 0 59849  81720.00000  0    4386327.833    5399242.041    1184346.388
10 0 59849  81900.00000  0    4381464.590    4946268.268    2474858.845
10 0 59849  82080.00000  0    4202460.836    4315175.789    3674392.274
10 0 59849  82260.00000  0    3851659.927    3533664.734    4738958.201
10 0 59849  82440.00000  0    3338492.188    2634761.189    5629639.295
10 0 59849  82620.00000  0    2679202.590    1655377.793    6314006.313
10 0 59849  82800.00000  0    1896297.611     634761.269    6767256.493
10 0 59849  82980.00000  0    1017743.136    -387096.943    6973057.169
10 0 59849  83160.00000  0      75944.495   -1371024.001    6924085.713
10 0 59849  83340.00000  0    -893455.779   -2280159.108    6622257.433
10 0 59849  83520.00000  0   -1852921.969   -3081323.303    6078636.380
10 0 59849  83700.00000  0   -2764461.418   -3746221.105    5313042.748
10 0 59849  83880.00000  0   -3591121.862   -4252447.357    4353371.526
10 0 59849  84060.00000  0   -4298499.105   -4584260.629    3234613.004
10 0 59849  84240.00000  0   -4856179.018   -4733088.044    1997603.078
10 0 59849  84420.00000  0   -5239056.787   -4697742.387     687543.729
10 0 59849  84600.00000  0   -5428469.319   -4484333.000    -647661.482
10 0 59849  84780.00000  0   -5413079.243   -4105871.563   -1959189.868
10 0 59849  84960.00000  0   -5189458.820   -3581588.303   -3199124.909
10 0 59849  85140.00000  0   -4762341.229   -2935995.623   -4322234.025
99
